start=new Date('2022-05-11T00:00:00.000Z').valueOf();
sats=[{"RCS_SIZE":"LARGE","MEAN_MOTION_DDOT":"0.0000000000000","PERIAPSIS":"546.200","SITE":"AFETR","COUNTRY_CODE":"US","TIME_SYSTEM":"UTC","TLE_LINE2":"2 46083  53.0550 256.7995 0001522  65.8750 294.2398 15.06386824 98440","DECAY_DATE":null,"PERIOD":"95.593","NORAD_CAT_ID":"46083","SEMIMAJOR_AXIS":"6925.389","TLE_LINE1":"1 46083U 20055BJ  22130.72604688  .00001947  00000-0  14963-3 0  9999","APOAPSIS":"548.308","ELEMENT_SET_NO":"999","MEAN_ANOMALY":"294.2398","REF_FRAME":"TEME","GP_ID":"203225902","FILE":"3439673","MEAN_MOTION":"15.06386824","EPOCH":"2022-05-10T17:25:30.450432","ARG_OF_PERICENTER":"65.8750","CENTER_NAME":"EARTH","MEAN_ELEMENT_THEORY":"SGP4","OBJECT_TYPE":"PAYLOAD","OBJECT_ID":"2020-055BJ","CLASSIFICATION_TYPE":"U","MEAN_MOTION_DOT":"0.00001947","RA_OF_ASC_NODE":"256.7995","LAUNCH_DATE":"2020-08-07","OBJECT_NAME":"STARLINK-1579","EPHEMERIS_TYPE":"0","REV_AT_EPOCH":"9844","INCLINATION":"53.0550","BSTAR":"0.00014963000000","ECCENTRICITY":"0.00015220"},{"TLE_LINE1":"1 46117U 20057A   22130.62651577  .00000796  00000-0  72334-4 0  9995","SEMIMAJOR_AXIS":"6925.365","NORAD_CAT_ID":"46117","PERIOD":"95.592","DECAY_DATE":null,"MEAN_ANOMALY":"313.2699","APOAPSIS":"548.634","ELEMENT_SET_NO":"999","MEAN_MOTION_DDOT":"0.0000000000000","PERIAPSIS":"545.826","RCS_SIZE":"LARGE","TLE_LINE2":"2 46117  53.0550  97.2499 0002028  46.8459 313.2699 15.06394629 95470","TIME_SYSTEM":"UTC","COUNTRY_CODE":"US","SITE":"AFETR","INCLINATION":"53.0550","REV_AT_EPOCH":"9547","EPHEMERIS_TYPE":"0","RA_OF_ASC_NODE":"97.2499","LAUNCH_DATE":"2020-08-18","OBJECT_NAME":"STARLINK-1585","ECCENTRICITY":"0.00020280","BSTAR":"0.00007233400000","ARG_OF_PERICENTER":"46.8459","EPOCH":"2022-05-10T15:02:10.962528","MEAN_MOTION":"15.06394629","FILE":"3439673","GP_ID":"203225406","REF_FRAME":"TEME","MEAN_MOTION_DOT":"0.00000796","CLASSIFICATION_TYPE":"U","OBJECT_TYPE":"PAYLOAD","MEAN_ELEMENT_THEORY":"SGP4","OBJECT_ID":"2020-057A","CENTER_NAME":"EARTH"},{"MEAN_MOTION_DDOT":"0.0000000000000","PERIAPSIS":"545.853","RCS_SIZE":"LARGE","TIME_SYSTEM":"UTC","TLE_LINE2":"2 46118  53.0537 118.3983 0001949  47.0130 313.1022 15.06403437 96433","COUNTRY_CODE":"US","SITE":"AFETR","DECAY_DATE":null,"TLE_LINE1":"1 46118U 20057B   22130.37034217 -.00000256  00000-0  17184-5 0  9999","SEMIMAJOR_AXIS":"6925.338","PERIOD":"95.592","NORAD_CAT_ID":"46118","MEAN_ANOMALY":"313.1022","APOAPSIS":"548.553","ELEMENT_SET_NO":"999","ARG_OF_PERICENTER":"47.0130","GP_ID":"203187972","REF_FRAME":"TEME","EPOCH":"2022-05-10T08:53:17.563488","MEAN_MOTION":"15.06403437","FILE":"3439131","CLASSIFICATION_TYPE":"U","OBJECT_TYPE":"PAYLOAD","OBJECT_ID":"2020-057B","MEAN_ELEMENT_THEORY":"SGP4","MEAN_MOTION_DOT":"-0.00000256","CENTER_NAME":"EARTH","INCLINATION":"53.0537","OBJECT_NAME":"STARLINK-1588","LAUNCH_DATE":"2020-08-18","RA_OF_ASC_NODE":"118.3983","REV_AT_EPOCH":"9643","EPHEMERIS_TYPE":"0","ECCENTRICITY":"0.00019490","BSTAR":"0.00000171840000"},{"TLE_LINE2":"2 46119  53.0534 116.9727 0002171  53.3782 306.7407 15.06400152 96461","TIME_SYSTEM":"UTC","COUNTRY_CODE":"US","SITE":"AFETR","PERIAPSIS":"545.710","MEAN_MOTION_DDOT":"0.0000000000000","RCS_SIZE":"LARGE","MEAN_ANOMALY":"306.7407","APOAPSIS":"548.717","ELEMENT_SET_NO":"999","DECAY_DATE":null,"TLE_LINE1":"1 46119U 20057C   22130.69101839  .00001933  00000-0  14862-3 0  9990","SEMIMAJOR_AXIS":"6925.348","PERIOD":"95.592","NORAD_CAT_ID":"46119","CLASSIFICATION_TYPE":"U","OBJECT_TYPE":"PAYLOAD","MEAN_ELEMENT_THEORY":"SGP4","OBJECT_ID":"2020-057C","MEAN_MOTION_DOT":"0.00001933","CENTER_NAME":"EARTH","ARG_OF_PERICENTER":"53.3782","GP_ID":"203224904","REF_FRAME":"TEME","EPOCH":"2022-05-10T16:35:03.988896","MEAN_MOTION":"15.06400152","FILE":"3439673","ECCENTRICITY":"0.00021710","BSTAR":"0.00014862000000","INCLINATION":"53.0534","LAUNCH_DATE":"2020-08-18","RA_OF_ASC_NODE":"116.9727","OBJECT_NAME":"STARLINK-1593","REV_AT_EPOCH":"9646","EPHEMERIS_TYPE":"0"},{"SITE":"AFETR","COUNTRY_CODE":"US","TLE_LINE2":"2 46120  53.0546 117.0375 0002114  42.6577 317.4576 15.06391944 96483","TIME_SYSTEM":"UTC","RCS_SIZE":"LARGE","MEAN_MOTION_DDOT":"0.0000000000000","PERIAPSIS":"545.774","ELEMENT_SET_NO":"999","APOAPSIS":"548.702","MEAN_ANOMALY":"317.4576","NORAD_CAT_ID":"46120","PERIOD":"95.593","TLE_LINE1":"1 46120U 20057D   22130.67631000 -.00000209  00000-0  49118-5 0  9998","SEMIMAJOR_AXIS":"6925.373","DECAY_DATE":null,"CENTER_NAME":"EARTH","MEAN_MOTION_DOT":"-0.00000209","OBJECT_ID":"2020-057D","OBJECT_TYPE":"PAYLOAD","MEAN_ELEMENT_THEORY":"SGP4","CLASSIFICATION_TYPE":"U","FILE":"3439673","EPOCH":"2022-05-10T16:13:53.184000","MEAN_MOTION":"15.06391944","REF_FRAME":"TEME","GP_ID":"203225154","ARG_OF_PERICENTER":"42.6577","BSTAR":"0.00000491180000","ECCENTRICITY":"0.00021140","EPHEMERIS_TYPE":"0","REV_AT_EPOCH":"9648","RA_OF_ASC_NODE":"117.0375","LAUNCH_DATE":"2020-08-18","OBJECT_NAME":"STARLINK-1601","INCLINATION":"53.0546"},{"INCLINATION":"53.0560","LAUNCH_DATE":"2020-08-18","OBJECT_NAME":"STARLINK-1602","RA_OF_ASC_NODE":"95.9910","EPHEMERIS_TYPE":"0","REV_AT_EPOCH":"9551","ECCENTRICITY":"0.00021320","BSTAR":"0.00000281230000","ARG_OF_PERICENTER":"50.4999","REF_FRAME":"TEME","GP_ID":"203225906","FILE":"3439673","EPOCH":"2022-05-10T21:50:53.030400","MEAN_MOTION":"15.06391911","OBJECT_ID":"2020-057E","OBJECT_TYPE":"PAYLOAD","MEAN_ELEMENT_THEORY":"SGP4","CLASSIFICATION_TYPE":"U","MEAN_MOTION_DOT":"-0.00000240","CENTER_NAME":"EARTH","DECAY_DATE":null,"PERIOD":"95.593","NORAD_CAT_ID":"46121","SEMIMAJOR_AXIS":"6925.373","TLE_LINE1":"1 46121U 20057E   22130.91033600 -.00000240  00000-0  28123-5 0  9996","MEAN_ANOMALY":"309.6179","APOAPSIS":"548.715","ELEMENT_SET_NO":"999","MEAN_MOTION_DDOT":"0.0000000000000","PERIAPSIS":"545.762","RCS_SIZE":"LARGE","TLE_LINE2":"2 46121  53.0560  95.9910 0002132  50.4999 309.6179 15.06391911 95513","TIME_SYSTEM":"UTC","SITE":"AFETR","COUNTRY_CODE":"US"},{"INCLINATION":"53.0545","OBJECT_NAME":"STARLINK-1604","LAUNCH_DATE":"2020-08-18","RA_OF_ASC_NODE":"77.4186","EPHEMERIS_TYPE":"0","REV_AT_EPOCH":"9700","ECCENTRICITY":"0.00019730","BSTAR":"0.00009073200000","ARG_OF_PERICENTER":"51.3178","REF_FRAME":"TEME","GP_ID":"203225656","FILE":"3439673","MEAN_MOTION":"15.06400214","EPOCH":"2022-05-10T14:06:27.011232","OBJECT_TYPE":"PAYLOAD","OBJECT_ID":"2020-057F","MEAN_ELEMENT_THEORY":"SGP4","CLASSIFICATION_TYPE":"U","MEAN_MOTION_DOT":"0.00001070","CENTER_NAME":"EARTH","DECAY_DATE":null,"NORAD_CAT_ID":"46122","PERIOD":"95.592","SEMIMAJOR_AXIS":"6925.348","TLE_LINE1":"1 46122U 20057F   22130.58781263  .00001070  00000-0  90732-4 0  9990","MEAN_ANOMALY":"308.7987","APOAPSIS":"548.579","ELEMENT_SET_NO":"999","PERIAPSIS":"545.847","MEAN_MOTION_DDOT":"0.0000000000000","RCS_SIZE":"LARGE","TIME_SYSTEM":"UTC","TLE_LINE2":"2 46122  53.0545  77.4186 0001973  51.3178 308.7987 15.06400214 97008","SITE":"AFETR","COUNTRY_CODE":"US"},{"SEMIMAJOR_AXIS":"6925.366","TLE_LINE1":"1 46123U 20057G   22130.57307296  .00000053  00000-0  22457-4 0  9999","PERIOD":"95.592","NORAD_CAT_ID":"46123","DECAY_DATE":null,"MEAN_ANOMALY":"313.1480","ELEMENT_SET_NO":"999","APOAPSIS":"548.812","MEAN_MOTION_DDOT":"0.0000000000000","PERIAPSIS":"545.649","RCS_SIZE":"LARGE","TIME_SYSTEM":"UTC","TLE_LINE2":"2 46123  53.0560  77.4997 0002284  46.9700 313.1480 15.06394451 97028","COUNTRY_CODE":"US","SITE":"AFETR","INCLINATION":"53.0560","REV_AT_EPOCH":"9702","EPHEMERIS_TYPE":"0","LAUNCH_DATE":"2020-08-18","OBJECT_NAME":"STARLINK-1605","RA_OF_ASC_NODE":"77.4997","ECCENTRICITY":"0.00022840","BSTAR":"0.00002245700000","ARG_OF_PERICENTER":"46.9700","MEAN_MOTION":"15.06394451","EPOCH":"2022-05-10T13:45:13.503744","FILE":"3439673","GP_ID":"203224405","REF_FRAME":"TEME","MEAN_MOTION_DOT":"0.00000053","CLASSIFICATION_TYPE":"U","OBJECT_ID":"2020-057G","OBJECT_TYPE":"PAYLOAD","MEAN_ELEMENT_THEORY":"SGP4","CENTER_NAME":"EARTH"},{"ELEMENT_SET_NO":"999","APOAPSIS":"548.421","MEAN_ANOMALY":"308.0165","SEMIMAJOR_AXIS":"6925.371","TLE_LINE1":"1 46124U 20057H   22130.58044308 -.00000599  00000-0 -21332-4 0  9991","PERIOD":"95.593","NORAD_CAT_ID":"46124","DECAY_DATE":null,"COUNTRY_CODE":"US","SITE":"AFETR","TIME_SYSTEM":"UTC","TLE_LINE2":"2 46124  53.0541  77.4673 0001711  52.0978 308.0165 15.06392578 95757","RCS_SIZE":"LARGE","PERIAPSIS":"546.051","MEAN_MOTION_DDOT":"0.0000000000000","BSTAR":"-0.00002133200000","ECCENTRICITY":"0.00017110","REV_AT_EPOCH":"9575","EPHEMERIS_TYPE":"0","LAUNCH_DATE":"2020-08-18","OBJECT_NAME":"STARLINK-1614","RA_OF_ASC_NODE":"77.4673","INCLINATION":"53.0541","CENTER_NAME":"EARTH","MEAN_MOTION_DOT":"-0.00000599","CLASSIFICATION_TYPE":"U","OBJECT_TYPE":"PAYLOAD","OBJECT_ID":"2020-057H","MEAN_ELEMENT_THEORY":"SGP4","EPOCH":"2022-05-10T13:55:50.282112","MEAN_MOTION":"15.06392578","FILE":"3439673","GP_ID":"203224655","REF_FRAME":"TEME","ARG_OF_PERICENTER":"52.0978"},{"MEAN_ANOMALY":"305.4342","APOAPSIS":"548.737","ELEMENT_SET_NO":"999","DECAY_DATE":null,"SEMIMAJOR_AXIS":"6925.349","TLE_LINE1":"1 46125U 20057J   22130.69470708  .00000415  00000-0  46753-4 0  9990","PERIOD":"95.592","NORAD_CAT_ID":"46125","TLE_LINE2":"2 46125  53.0548 116.9480 0002199  54.6852 305.4342 15.06399711 96463","TIME_SYSTEM":"UTC","COUNTRY_CODE":"US","SITE":"AFETR","PERIAPSIS":"545.692","MEAN_MOTION_DDOT":"0.0000000000000","RCS_SIZE":"LARGE","ECCENTRICITY":"0.00021990","BSTAR":"0.00004675300000","INCLINATION":"53.0548","LAUNCH_DATE":"2020-08-18","RA_OF_ASC_NODE":"116.9480","OBJECT_NAME":"STARLINK-1618","REV_AT_EPOCH":"9646","EPHEMERIS_TYPE":"0","CLASSIFICATION_TYPE":"U","MEAN_ELEMENT_THEORY":"SGP4","OBJECT_TYPE":"PAYLOAD","OBJECT_ID":"2020-057J","MEAN_MOTION_DOT":"0.00000415","CENTER_NAME":"EARTH","ARG_OF_PERICENTER":"54.6852","GP_ID":"203225407","REF_FRAME":"TEME","MEAN_MOTION":"15.06399711","EPOCH":"2022-05-10T16:40:22.691712","FILE":"3439673"}];
